NORAD_CAT_ID,OBJECT_NAME,OBJECT_TYPE,EPOCH,MEAN_MOTION,ECCENTRICITY,INCLINATION,RA_OF_ASC_NODE,ARG_OF_PERICENTER,MEAN_ANOMALY,BSTAR,MEAN_MOTION_DOT,MEAN_MOTION_DDOT,TLE_LINE0,TLE_LINE1,TLE_LINE2,SEMIMAJOR_AXIS,PERIOD,APOGEE,PERIGEE,DECAYED
53719.0,STARLINK-4644,PAYLOAD,2024-01-03 20:14:29,15.08848602,0.000128,53.2158,196.4391,86.4548,273.6591,-0.00023677,-4.055e-05,0.0,0 STARLINK-4644,1 53719U 22107V   24003.84339150 -.00004055  00000-0 -23677-3 0  9993,2 53719  53.2158 196.4391 0001280  86.4548 273.6591 15.08848602 74220,6917.854,95.437,540.605,538.834,0.0
53719.0,STARLINK-4644,PAYLOAD,2024-01-04 20:05:16,15.0883206,0.0001276,53.216,191.9769,84.4137,275.7001,0.000102,1.335e-05,0.0,0 STARLINK-4644,1 53719U 22107V   24004.83699312  .00001335  00000-0  10200-3 0  9996,2 53719  53.2160 191.9769 0001276  84.4137 275.7001 15.08832060 74375,6917.905,95.438,540.652,538.887,0.0
53719.0,STARLINK-4644,PAYLOAD,2024-01-04 21:40:39,15.08832511,0.0001283,53.2161,191.6794,84.4339,275.68,0.00010484,1.381e-05,0.0,0 STARLINK-4644,1 53719U 22107V   24004.90323321  .00001381  00000-0  10484-3 0  9993,2 53719  53.2161 191.6794 0001283  84.4339 275.6800 15.08832511 74853,6917.903,95.438,540.656,538.881,0.0
53719.0,STARLINK-4644,PAYLOAD,2024-01-05 11:59:08,15.08830694,0.0001277,53.2159,189.0034,86.4664,273.6474,5.7019e-05,6.19e-06,0.0,0 STARLINK-4644,1 53719U 22107V   24005.49939990  .00000619  00000-0  57019-4 0  9992,2 53719  53.2159 189.0034 0001277  86.4664 273.6474 15.08830694 74949,6917.909,95.438,540.657,538.89,0.0
53719.0,STARLINK-4644,PAYLOAD,2024-01-05 18:20:40,15.08831465,0.0001301,53.216,187.8138,84.8731,275.2409,6.0124e-05,6.69e-06,0.0,0 STARLINK-4644,1 53719U 22107V   24005.76436111  .00000669  00000-0  60124-4 0  9995,2 53719  53.2160 187.8138 0001301  84.8731 275.2409 15.08831465 74984,6917.906,95.438,540.671,538.871,0.0
53719.0,STARLINK-4644,PAYLOAD,2024-01-06 18:11:27,15.0884018,0.0001317,53.2163,183.3529,84.6124,275.5019,7.3334e-05,8.79e-06,0.0,0 STARLINK-4644,1 53719U 22107V   24006.75795846  .00000879  00000-0  73334-4 0  9998,2 53719  53.2163 183.3529 0001317  84.6124 275.5019 15.08840180 74662,6917.88,95.438,540.656,538.834,0.0
53719.0,STARLINK-4644,PAYLOAD,2024-01-07 14:51:28,15.08837602,0.00013,53.2167,179.4858,98.1742,261.9397,5.4265e-05,5.76e-06,0.0,0 STARLINK-4644,1 53719U 22107V   24007.61908198  .00000576  00000-0  54265-4 0  9996,2 53719  53.2167 179.4858 0001300  98.1742 261.9397 15.08837602 75265,6917.888,95.438,540.652,538.853,0.0
53719.0,STARLINK-4644,PAYLOAD,2024-01-07 18:02:16,15.08820759,0.0001144,53.2166,178.8919,84.7315,275.3808,-8.3928e-05,-1.623e-05,0.0,0 STARLINK-4644,1 53719U 22107V   24007.75157654 -.00001623  00000-0 -83928-4 0  9998,2 53719  53.2166 178.8919 0001144  84.7315 275.3808 15.08820759 74819,6917.939,95.439,540.596,539.013,0.0
53719.0,STARLINK-4644,PAYLOAD,2024-01-07 21:13:02,15.0882003,0.0001096,53.2164,178.299,83.1416,276.9701,-7.3237e-05,-1.452e-05,0.0,0 STARLINK-4644,1 53719U 22107V   24007.88405815 -.00001452  00000-0 -73237-4 0  9999,2 53719  53.2164 178.2990 0001096  83.1416 276.9701 15.08820030 75307,6917.941,95.439,540.565,539.048,0.0
53719.0,STARLINK-4644,PAYLOAD,2024-01-08 11:31:31,15.08827695,0.0001387,53.2168,175.6254,125.7587,234.3534,-0.00013405,-2.42e-05,0.0,0 STARLINK-4644,1 53719U 22107V   24008.48022080 -.00002420  00000-0 -13405-3 0  9991,2 53719  53.2168 175.6254 0001387 125.7587 234.3534 15.08827695 74923,6917.918,95.438,540.743,538.823,0.0
53719.0,STARLINK-4644,PAYLOAD,2024-01-08 14:42:17,15.0882762,0.0001089,53.2169,175.03,82.595,277.5166,-5.9191e-05,-1.229e-05,0.0,0 STARLINK-4644,1 53719U 22107V   24008.61270004 -.00001229  00000-0 -59191-4 0  9996,2 53719  53.2169 175.0300 0001089  82.5950 277.5166 15.08827620 75416,6917.918,95.438,540.537,539.03,0.0
53719.0,STARLINK-4644,PAYLOAD,2024-01-08 17:53:03,15.08832069,0.0001156,53.2172,174.4345,96.4306,263.6818,-2.2767e-05,-6.5e-06,0.0,0 STARLINK-4644,1 53719U 22107V   24008.74517667 -.00000650  00000-0 -22767-4 0  9995,2 53719  53.2172 174.4345 0001156  96.4306 263.6818 15.08832069 75431,6917.905,95.438,540.569,538.97,0.0
53719.0,STARLINK-4644,PAYLOAD,2024-01-09 14:33:03,15.08833624,0.0001054,53.2172,170.5683,96.1745,263.9367,0.00027739,4.129e-05,0.0,0 STARLINK-4644,1 53719U 22107V   24009.60629377  .00004129  00000-0  27739-3 0  9999,2 53719  53.2172 170.5683 0001054  96.1745 263.9367 15.08833624 75568,6917.9,95.438,540.494,539.036,0.0
53719.0,STARLINK-4644,PAYLOAD,2024-01-09 19:19:13,15.08842451,0.0001074,53.2159,169.6763,91.0789,269.0327,0.00040827,6.216e-05,0.0,0 STARLINK-4644,1 53719U 22107V   24009.80501581  .00006216  00000-0  40827-3 0  9999,2 53719  53.2159 169.6763 0001074  91.0789 269.0327 15.08842451 75128,6917.873,95.437,540.481,538.995,0.0
53719.0,STARLINK-4644,PAYLOAD,2024-01-09 20:54:36,15.08845352,0.0001082,53.2158,169.378,95.8826,264.2289,0.00045591,6.976e-05,0.0,0 STARLINK-4644,1 53719U 22107V   24009.87125493  .00006976  00000-0  45591-3 0  9996,2 53719  53.2158 169.3780 0001082  95.8826 264.2289 15.08845352 75606,6917.864,95.437,540.478,538.981,0.0
53719.0,STARLINK-4644,PAYLOAD,2024-01-10 09:37:41,15.08850396,0.0001099,53.2154,166.9981,96.2747,263.837,0.00032101,4.826e-05,0.0,0 STARLINK-4644,1 53719U 22107V   24010.40117219  .00004826  00000-0  32101-3 0  9999,2 53719  53.2154 166.9981 0001099  96.2747 263.8370 15.08850396 75681,6917.849,95.437,540.474,538.953,0.0
53719.0,STARLINK-4644,PAYLOAD,2024-01-11 14:14:37,15.08846761,0.0001454,53.2154,161.648,50.1451,309.9669,5.5341e-05,5.93e-06,0.0,0 STARLINK-4644,1 53719U 22107V   24011.59348782  .00000593  00000-0  55341-4 0  9990,2 53719  53.2154 161.6480 0001454  50.1451 309.9669 15.08846761 75867,6917.86,95.437,540.731,538.719,0.0
53719.0,STARLINK-4644,PAYLOAD,2024-01-11 19:00:46,15.08853007,0.0001187,53.2172,160.7522,102.8834,257.229,0.00018184,2.608e-05,0.0,0 STARLINK-4644,1 53719U 22107V   24011.79220300  .00002608  00000-0  18184-3 0  9999,2 53719  53.2172 160.7522 0001187 102.8834 257.2290 15.08853007 75425,6917.841,95.437,540.527,538.884,0.0
53719.0,STARLINK-4644,PAYLOAD,2024-01-12 14:05:24,15.08842207,0.000168,53.2164,157.184,77.1926,282.9254,-6.0002e-05,-1.243e-05,0.0,0 STARLINK-4644,1 53719U 22107V   24012.58708834 -.00001243  00000-0 -60002-4 0  9993,2 53719  53.2164 157.1840 0001680  77.1926 282.9254 15.08842207 76014,6917.874,95.437,540.901,538.576,0.0
53719.0,STARLINK-4644,PAYLOAD,2024-01-12 15:40:47,15.0884504,0.0001383,53.217,156.8815,105.4074,254.7071,-0.00013698,-2.468e-05,0.0,0 STARLINK-4644,1 53719U 22107V   24012.65332637 -.00002468  00000-0 -13698-3 0  9993,2 53719  53.2170 156.8815 0001383 105.4074 254.7071 15.08845040 75558,6917.865,95.437,540.687,538.773,0.0
53719.0,STARLINK-4644,PAYLOAD,2024-01-13 13:56:11,15.08848086,0.0001556,53.2183,152.7147,118.9085,241.2063,7.4272e-05,8.94e-06,0.0,0 STARLINK-4644,1 53719U 22107V   24013.58068504  .00000894  00000-0  74272-4 0  9990,2 53719  53.2183 152.7147 0001556 118.9085 241.2063 15.08848086 76161,6917.856,95.437,540.797,538.644,0.0
53719.0,STARLINK-4644,PAYLOAD,2024-01-13 18:42:20,15.08849584,0.0001375,53.217,151.829,92.6059,267.5091,0.00030802,4.619e-05,0.0,0 STARLINK-4644,1 53719U 22107V   24013.77940692  .00004619  00000-0  30802-3 0  9997,2 53719  53.2170 151.8290 0001375  92.6059 267.5091 15.08849584 75721,6917.851,95.437,540.667,538.765,0.0
53719.0,STARLINK-4644,PAYLOAD,2024-01-14 12:11:35,15.08846485,0.0002287,53.2164,148.5597,138.7862,221.3303,0.00025861,3.831e-05,0.0,0 STARLINK-4644,1 53719U 22107V   24014.50804506  .00003831  00000-0  25861-3 0  9996,2 53719  53.2164 148.5597 0002287 138.7862 221.3303 15.08846485 75837,6917.861,95.437,541.308,538.143,0.0
53719.0,STARLINK-4644,PAYLOAD,2024-01-14 13:46:58,15.08848194,0.0001921,53.2172,148.2639,128.1996,231.917,0.00027946,4.163e-05,0.0,0 STARLINK-4644,1 53719U 22107V   24014.57428547  .00004163  00000-0  27946-3 0  9995,2 53719  53.2172 148.2639 0001921 128.1996 231.9170 15.08848194 76317,6917.855,95.437,541.049,538.391,0.0
53719.0,STARLINK-4644,PAYLOAD,2024-01-14 15:22:21,15.0885073,0.0001576,53.2174,147.9693,87.1121,273.0052,0.00029596,4.427e-05,0.0,0 STARLINK-4644,1 53719U 22107V   24014.64052736  .00004427  00000-0  29596-3 0  9992,2 53719  53.2174 147.9693 0001576  87.1121 273.0052 15.08850730 76321,6917.848,95.437,540.803,538.622,0.0
53719.0,STARLINK-4644,PAYLOAD,2024-01-15 12:02:22,15.08846755,0.0001513,53.2173,144.0987,93.7469,266.3696,0.00010163,1.33e-05,0.0,0 STARLINK-4644,1 53719U 22107V   24015.50164617  .00001330  00000-0  10163-3 0  9990,2 53719  53.2173 144.0987 0001513  93.7469 266.3696 15.08846755 75985,6917.86,95.437,540.771,538.678,0.0
53719.0,STARLINK-4644,PAYLOAD,2024-01-15 13:37:45,15.08846239,0.0001412,53.2166,143.8022,91.328,268.7874,9.4819e-05,1.222e-05,0.0,0 STARLINK-4644,1 53719U 22107V   24015.56788588  .00001222  00000-0  94819-4 0  9996,2 53719  53.2166 143.8022 0001412  91.3280 268.7874 15.08846239 76462,6917.861,95.437,540.703,538.75,0.0
53719.0,STARLINK-4644,PAYLOAD,2024-01-15 15:13:08,15.0884717,0.0001385,53.2165,143.505,97.731,262.3839,0.00012907,1.767e-05,0.0,0 STARLINK-4644,1 53719U 22107V   24015.63412508  .00001767  00000-0  12907-3 0  9991,2 53719  53.2165 143.5050 0001385  97.7310 262.3839 15.08847170 76479,6917.858,95.437,540.682,538.765,0.0
53719.0,STARLINK-4644,PAYLOAD,2024-01-16 11:53:09,15.0883791,0.0001476,53.216,139.6414,97.3421,262.7739,9.2719e-07,-2.73e-06,0.0,0 STARLINK-4644,1 53719U 22107V   24016.49525070 -.00000273  00000-0  92719-6 0  9999,2 53719  53.2160 139.6414 0001476  97.3421 262.7739 15.08837910 76131,6917.887,95.438,540.773,538.731,0.0
53719.0,STARLINK-4644,PAYLOAD,2024-01-16 13:28:32,15.08839276,0.0001499,53.2161,139.3442,97.8721,262.2442,3.9198e-05,3.36e-06,0.0,0 STARLINK-4644,1 53719U 22107V   24016.56149047  .00000336  00000-0  39198-4 0  9992,2 53719  53.2161 139.3442 0001499  97.8721 262.2442 15.08839276 76619,6917.883,95.438,540.785,538.711,0.0
